NORAD_CAT_ID,OBJECT_NAME,OBJECT_TYPE,EPOCH,MEAN_MOTION,ECCENTRICITY,INCLINATION,RA_OF_ASC_NODE,ARG_OF_PERICENTER,MEAN_ANOMALY,BSTAR,MEAN_MOTION_DOT,MEAN_MOTION_DDOT,TLE_LINE0,TLE_LINE1,TLE_LINE2,SEMIMAJOR_AXIS,PERIOD,APOGEE,PERIGEE,DECAYED
54191.0,STARLINK-4619,PAYLOAD,2023-07-04 01:25:39,15.08838115,0.000104,53.2172,72.0891,84.1983,275.9128,2.4405e-05,1.01e-06,0.0,0 STARLINK-4619,1 54191U 22141AL  23185.05948075  .00000101  00000-0  24405-4 0  9998,2 54191  53.2172  72.0891 0001040  84.1983 275.9128 15.08838115 38338,6917.886,95.438,540.471,539.032,0.0
54191.0,STARLINK-4619,PAYLOAD,2023-07-04 23:41:02,15.08846999,0.0001009,53.2169,67.9262,87.9083,272.2024,4.4027e-05,4.13e-06,0.0,0 STARLINK-4619,1 54191U 22141AL  23185.98683536  .00000413  00000-0  44027-4 0  9996,2 54191  53.2169  67.9262 0001009  87.9083 272.2024 15.08846999 38475,6917.859,95.437,540.422,539.026,0.0
54191.0,STARLINK-4619,PAYLOAD,2023-07-06 01:07:13,15.08841457,0.0001133,53.2175,63.1689,91.7861,268.3261,9.1008e-05,1.161e-05,0.0,0 STARLINK-4619,1 54191U 22141AL  23187.04667960  .00001161  00000-0  91008-4 0  9990,2 54191  53.2175  63.1689 0001133  91.7861 268.3261 15.08841457 38639,6917.876,95.437,540.525,538.957,0.0
54191.0,STARLINK-4619,PAYLOAD,2023-07-07 00:57:59,15.08850683,0.0001104,53.2171,58.7082,92.4965,267.6154,0.00012736,1.74e-05,0.0,0 STARLINK-4619,1 54191U 22141AL  23188.04027174  .00001740  00000-0  12736-3 0  9991,2 54191  53.2171  58.7082 0001104  92.4965 267.6154 15.08850683 38783,6917.848,95.437,540.476,538.949,0.0
54191.0,STARLINK-4619,PAYLOAD,2023-07-07 15:16:28,15.08837131,0.0001292,53.2158,56.0297,107.0379,253.0754,6.7416e-05,7.85e-06,0.0,0 STARLINK-4619,1 54191U 22141AL  23188.63644142  .00000785  00000-0  67416-4 0  9990,2 54191  53.2158  56.0297 0001292 107.0379 253.0754 15.08837131 38875,6917.889,95.438,540.648,538.86,0.0
54191.0,STARLINK-4619,PAYLOAD,2023-07-08 21:28:47,15.08846354,0.0001148,53.2182,50.3825,86.1493,273.9631,9.69e-06,-1.34e-06,0.0,0 STARLINK-4619,1 54191U 22141AL  23189.89499799 -.00000134  00000-0  96900-5 0  9995,2 54191  53.2182  50.3825 0001148  86.1493 273.9631 15.08846354 39064,6917.861,95.437,540.52,538.932,0.0
54191.0,STARLINK-4619,PAYLOAD,2023-07-09 18:08:49,15.08833266,0.0001145,53.2181,46.5166,86.7869,273.3254,2.6696e-05,1.37e-06,0.0,0 STARLINK-4619,1 54191U 22141AL  23190.75612722  .00000137  00000-0  26696-4 0  9991,2 54191  53.2181  46.5166 0001145  86.7869 273.3254 15.08833266 39195,6917.901,95.438,540.558,538.974,0.0
54191.0,STARLINK-4619,PAYLOAD,2023-07-10 00:30:21,15.08840207,0.0001168,53.219,45.3288,87.3996,272.713,9.3806e-05,1.205e-05,0.0,0 STARLINK-4619,1 54191U 22141AL  23191.02108160  .00001205  00000-0  93806-4 0  9992,2 54191  53.2190  45.3288 0001168  87.3996 272.7130 15.08840207 39234,6917.88,95.438,540.553,538.937,0.0
54191.0,STARLINK-4619,PAYLOAD,2023-07-10 16:24:13,15.08834276,0.0001021,53.2176,42.3538,89.1643,270.9467,0.00011999,1.622e-05,0.0,0 STARLINK-4619,1 54191U 22141AL  23191.68348482  .00001622  00000-0  11999-3 0  9992,2 54191  53.2176  42.3538 0001021  89.1643 270.9467 15.08834276 39333,6917.898,95.438,540.469,539.057,0.0
54191.0,STARLINK-4619,PAYLOAD,2023-07-11 00:21:08,15.08843512,0.0001026,53.2176,40.8666,89.5258,270.5851,8.0834e-05,9.99e-06,0.0,0 STARLINK-4619,1 54191U 22141AL  23192.01468045  .00000999  00000-0  80834-4 0  9999,2 54191  53.2176  40.8666 0001026  89.5258 270.5851 15.08843512 39380,6917.87,95.437,540.444,539.025,0.0
54191.0,STARLINK-4619,PAYLOAD,2023-07-12 00:11:55,15.08839961,8.75e-05,53.2167,36.4055,87.6459,272.4633,3.4766e-05,2.66e-06,0.0,0 STARLINK-4619,1 54191U 22141AL  23193.00828579  .00000266  00000-0  34766-4 0  9991,2 54191  53.2167  36.4055 0000875  87.6459 272.4633 15.08839961 39535,6917.881,95.438,540.351,539.14,0.0
54191.0,STARLINK-4619,PAYLOAD,2023-07-13 12:45:48,15.08831626,0.0001217,53.2181,29.5651,79.5831,280.5298,2.0375e-05,3.6e-07,0.0,0 STARLINK-4619,1 54191U 22141AL  23194.53181483  .00000036  00000-0  20375-4 0  9992,2 54191  53.2181  29.5651 0001217  79.5831 280.5298 15.08831626 39763,6917.906,95.438,540.613,538.929,0.0
54191.0,STARLINK-4619,PAYLOAD,2023-07-13 20:42:44,15.08838877,0.0001002,53.218,28.079,79.5122,280.5983,5.4241e-05,5.76e-06,0.0,0 STARLINK-4619,1 54191U 22141AL  23194.86301016  .00000576  00000-0  54241-4 0  9992,2 54191  53.2180  28.0790 0001002  79.5122 280.5983 15.08838877 39817,6917.884,95.438,540.442,539.056,0.0
54191.0,STARLINK-4619,PAYLOAD,2023-07-14 18:58:07,15.08853594,0.000108,53.2166,23.9172,72.9724,287.1387,0.00028362,4.231e-05,0.0,0 STARLINK-4619,1 54191U 22141AL  23195.79036295  .00004231  00000-0  28362-3 0  9995,2 54191  53.2166  23.9172 0001080  72.9724 287.1387 15.08853594 39959,6917.839,95.437,540.451,538.957,0.0
54191.0,STARLINK-4619,PAYLOAD,2023-07-15 06:05:49,15.08844028,0.0001086,53.2174,21.8352,75.7488,284.3625,0.00015892,2.243e-05,0.0,0 STARLINK-4619,1 54191U 22141AL  23196.25404674  .00002243  00000-0  15892-3 0  9992,2 54191  53.2174  21.8352 0001086  75.7488 284.3625 15.08844028 40025,6917.868,95.437,540.484,538.982,0.0
54191.0,STARLINK-4619,PAYLOAD,2023-07-16 18:39:42,15.08842291,0.000112,53.2175,14.9956,86.1814,273.9307,0.00014262,1.983e-05,0.0,0 STARLINK-4619,1 54191U 22141AL  23197.77756996  .00001983  00000-0  14262-3 0  9997,2 54191  53.2175  14.9956 0001120  86.1814 273.9307 15.08842291 40253,6917.873,95.437,540.513,538.964,0.0
54191.0,STARLINK-4619,PAYLOAD,2023-07-17 23:16:37,15.08859169,0.0001132,53.2174,9.6414,85.1672,274.9449,0.0004584,7.019e-05,0.0,0 STARLINK-4619,1 54191U 22141AL  23198.96988336  .00007019  00000-0  45840-3 0  9996,2 54191  53.2174   9.6414 0001132  85.1672 274.9449 15.08859169 40436,6917.822,95.436,540.47,538.904,0.0
54191.0,STARLINK-4619,PAYLOAD,2023-07-18 11:59:43,15.08838528,0.000118,53.2173,7.2621,91.2209,268.8919,-2.2799e-05,-6.51e-06,0.0,0 STARLINK-4619,1 54191U 22141AL  23199.49981029 -.00000651  00000-0 -22799-4 0  9993,2 54191  53.2173   7.2621 0001180  91.2209 268.8919 15.08838528 40515,6917.885,95.438,540.566,538.934,0.0
54191.0,STARLINK-4619,PAYLOAD,2023-07-18 23:07:25,15.08846494,0.0001253,53.2177,5.1811,95.4928,264.6207,0.00022568,3.306e-05,0.0,0 STARLINK-4619,1 54191U 22141AL  23199.96348777  .00003306  00000-0  22568-3 0  9993,2 54191  53.2177   5.1811 0001253  95.4928 264.6207 15.08846494 40584,6917.861,95.437,540.592,538.859,0.0
54191.0,STARLINK-4619,PAYLOAD,2023-07-19 19:47:27,15.08829354,0.0001545,53.2177,1.319,118.748,241.3668,6.7142e-05,7.8e-06,0.0,0 STARLINK-4619,1 54191U 22141AL  23200.82461980  .00000780  00000-0  67142-4 0  9994,2 54191  53.2177   1.3190 0001545 118.7480 241.3668 15.08829354 40712,6917.913,95.438,540.847,538.709,0.0
54191.0,STARLINK-4619,PAYLOAD,2023-07-20 19:38:13,15.08862642,0.0001109,53.217,356.8561,91.555,268.5569,0.0011328,0.00017798,0.0,0 STARLINK-4619,1 54191U 22141AL  23201.81821689  .00017798  00000-0  11328-2 0  9990,2 54191  53.2170 356.8561 0001109  91.5550 268.5569 15.08862642 40861,6917.811,95.436,540.443,538.909,0.0
54191.0,STARLINK-4619,PAYLOAD,2023-07-21 13:07:28,15.08857348,0.0001121,53.2169,353.5853,83.6037,276.5083,0.00068281,0.00010601,0.0,0 STARLINK-4619,1 54191U 22141AL  23202.54685540  .00010601  00000-0  68281-3 0  9992,2 54191  53.2169 353.5853 0001121  83.6037 276.5083 15.08857348 40972,6917.827,95.436,540.468,538.917,0.0
54191.0,STARLINK-4619,PAYLOAD,2023-07-24 09:29:03,15.08845249,0.0001553,53.218,340.8013,76.3769,283.7396,0.00015696,2.211e-05,0.0,0 STARLINK-4619,1 54191U 22141AL  23205.39517448  .00002211  00000-0  15696-3 0  9999,2 54191  53.2180 340.8013 0001553  76.3769 283.7396 15.08845249 41179,6917.864,95.437,540.804,538.655,0.0
54191.0,STARLINK-4619,PAYLOAD,2023-07-25 12:30:36,15.08834336,0.0001408,53.2142,335.742,91.4806,268.6347,-1.1482e-05,-4.71e-06,0.0,0 STARLINK-4619,1 54191U 22141AL  23206.52125966 -.00000471  00000-0 -11482-4 0  9993,2 54191  53.2142 335.7420 0001408  91.4806 268.6347 15.08834336 41343,6917.898,95.438,540.737,538.789,0.0
54191.0,STARLINK-4619,PAYLOAD,2023-07-26 13:56:46,15.08848753,0.000121,53.2184,330.9878,100.7858,259.327,0.00027952,4.165e-05,0.0,0 STARLINK-4619,1 54191U 22141AL  23207.58109639  .00004165  00000-0  27952-3 0  9999,2 54191  53.2184 330.9878 0001210 100.7858 259.3270 15.08848753 41503,6917.854,95.437,540.556,538.882,0.0
54191.0,STARLINK-4619,PAYLOAD,2023-07-27 01:04:28,15.08847157,0.0001019,53.2176,328.9062,88.9897,271.1212,0.00028957,4.325e-05,0.0,0 STARLINK-4619,1 54191U 22141AL  23208.04477678  .00004325  00000-0  28957-3 0  9996,2 54191  53.2176 328.9062 0001019  88.9897 271.1212 15.08847157 41801,6917.859,95.437,540.428,539.019,0.0
54191.0,STARLINK-4619,PAYLOAD,2023-07-27 09:01:24,15.08834665,0.0001443,53.2188,327.4195,95.8459,264.2698,-2.7975e-05,-7.33e-06,0.0,0 STARLINK-4619,1 54191U 22141AL  23208.37598158 -.00000733  00000-0 -27975-4 0  9990,2 54191  53.2188 327.4195 0001443  95.8459 264.2698 15.08834665 41853,6917.897,95.438,540.76,538.763,0.0
54191.0,STARLINK-4619,PAYLOAD,2023-07-28 08:52:12,15.08838526,0.0001402,53.2189,322.9585,86.1729,273.9423,-4.2034e-05,-9.57e-06,0.0,0 STARLINK-4619,1 54191U 22141AL  23209.36958378 -.00000957  00000-0 -42034-4 0  9995,2 54191  53.2189 322.9585 0001402  86.1729 273.9423 15.08838526 41779,6917.885,95.438,540.72,538.78,0.0
54191.0,STARLINK-4619,PAYLOAD,2023-07-29 00:46:03,15.08843893,0.0001447,53.2174,319.9836,86.5147,273.6011,-0.00022999,-3.947e-05,0.0,0 STARLINK-4619,1 54191U 22141AL  23210.03198199 -.00003947  00000-0 -22999-3 0  9997,2 54191  53.2174 319.9836 0001447  86.5147 273.6011 15.08843893 42106,6917.868,95.437,540.735,538.732,0.0
54191.0,STARLINK-4619,PAYLOAD,2023-07-29 07:07:36,15.08832156,0.0001444,53.2156,318.7928,85.978,274.1377,0.00037844,5.739e-05,0.0,0 STARLINK-4619,1 54191U 22141AL  23210.29695052  .00005739  00000-0  37844-3 0  9999,2 54191  53.2156 318.7928 0001444  85.9780 274.1377 15.08832156 42143,6917.904,95.438,540.768,538.77,0.0
